NAVSTAR 77 (USA 289)    
1 43873U 18109A   24175.31283559  .00000024  00000+0  00000+0 0  9993
2 43873  55.2997 120.7868 0029191 195.1137 337.1623  2.00556223 40559
